[{"OBJECT_NAME":"DAMPE","OBJECT_ID":"2015-078A","EPOCH":"2026-03-09T23:55:00.527232","MEAN_MOTION":15.30502084,"ECCENTRICITY":0.00138005,"INCLINATION":97.4588,"RA_OF_ASC_NODE":73.9866,"ARG_OF_PERICENTER":70.6942,"MEAN_ANOMALY":289.579,"EPHEMERIS_TYPE":0,"CLASSIFICATION_TYPE":"U","NORAD_CAT_ID":41173,"ELEMENT_SET_NO":999,"REV_AT_EPOCH":56937,"BSTAR":9.1158173e-5,"MEAN_MOTION_DOT":2.617e-5,"MEAN_MOTION_DDOT":0},{"OBJECT_NAME":"STARLINK-34681","OBJECT_ID":"2025-259S","EPOCH":"2026-03-09T21:44:54.042720","MEAN_MOTION":15.27602087,"ECCENTRICITY":0.00019215,"INCLINATION":43,"RA_OF_ASC_NODE":273.1825,"ARG_OF_PERICENTER":263.5308,"MEAN_ANOMALY":96.5325,"EPHEMERIS_TYPE":0,"CLASSIFICATION_TYPE":"U","NORAD_CAT_ID":66438,"ELEMENT_SET_NO":999,"REV_AT_EPOCH":1941,"BSTAR":0.0010530093,"MEAN_MOTION_DOT":0.00028848,"MEAN_MOTION_DDOT":0}]
